CCSDS_OEM_VERS = 2.0
CREATION_DATE = 2024-10-04T19:00:54.562000000
ORIGINATOR = NONE

META_START
OBJECT_NAME = _SCPACE_OEM
OBJECT_ID = 1
CENTER_NAME = EARTH
REF_FRAME = EME2000
TIME_SYSTEM = UTC
START_TIME = 2024-10-03T08:00:00.000000000
STOP_TIME = 2024-10-04T16:00:00.000000000
INTERPOLATION = LAGRANGE
INTERPOLATION_DEGREE = 8
META_STOP

2024-10-04T08:42:00.000000000 -5.175481428596170e+03 -2.068150883584222e+03  4.315135200309685e+03  3.722513916321834e+00  2.918933368492196e+00  5.847658447072591e+00
2024-10-04T08:43:00.000000000 -4.941696555209640e+03 -1.888903759538726e+03  4.656904035915570e+03  4.067662579297206e+00  3.053937964096418e+00  5.540758469330199e+00
2024-10-04T08:44:00.000000000 -4.687696342932320e+03 -1.701928887987402e+03  4.979572499639992e+03  4.396113920281257e+00  3.176428127919007e+00  5.211188024320384e+00
2024-10-04T08:45:00.000000000 -4.414523548602562e+03 -1.507992557045685e+03  5.281820560271796e+03  4.706527705348342e+00  3.285905733395655e+00  4.860310178898157e+00
2024-10-04T08:46:00.000000000 -4.123298869842874e+03 -1.307889186471636e+03  5.562412706392910e+03  4.997639631595884e+00  3.381927137097509e+00  4.489572960113755e+00
2024-10-04T08:47:00.000000000 -3.815216323938198e+03 -1.102438047333200e+03  5.820202827884509e+03  5.268265839759120e+00  3.464104530692336e+00  4.100503522281598e+00
2024-10-04T08:48:00.000000000 -3.491538470553173e+03 -8.924800062189906e+02  6.054138641688097e+03  5.517307688941310e+00  3.532107106326009e+00  3.694702406568791e+00
2024-10-04T08:49:00.000000000 -3.153591094555827e+03 -6.788740224454110e+02  6.263265939546503e+03  5.743756603397514e+00  3.585662501716849e+00  3.273836541886604e+00
2024-10-04T08:50:00.000000000 -2.802757681994678e+03 -4.624936019911487e+02  6.446732347998615e+03  5.946697708633738e+00  3.624557850479140e+00  2.839631601199648e+00
2024-10-04T08:51:00.000000000 -2.440473746669523e+03 -2.442232427494576e+02  6.603790585710182e+03  6.125312954586910e+00  3.648640283810246e+00  2.393864583851157e+00
2024-10-04T08:52:00.000000000 -2.068220828080382e+03 -2.495476653330262e+01  6.733801371860508e+03  6.278883938870456e+00  3.657816807725508e+00  1.938355900670894e+00
2024-10-04T08:53:00.000000000 -1.687520627737067e+03  1.944161505436269e+02  6.836235726435549e+03  6.406793302185426e+00  3.652053663662551e+00  1.474962308653458e+00
2024-10-04T08:54:00.000000000 -1.299928613241760e+03  4.129936954139738e+02  6.910677046744013e+03  6.508526146802550e+00  3.631376269507706e+00  1.005570972095700e+00
2024-10-04T08:55:00.000000000 -9.070283043076809e+02  6.298852253890176e+02  6.956822675566681e+03  6.583672686156158e+00  3.595870037691726e+00  5.320937381120885e-01
2024-10-04T08:56:00.000000000 -5.104247979001061e+02  8.442049152279595e+02  6.974485254056479e+03  6.631930745881048e+00  3.545680532377493e+00  5.645853967607953e-02
2024-10-04T08:57:00.000000000 -1.117378280928227e+02  1.055077577639833e+03  6.963593377508059e+03  6.653106373603759e+00  3.481012315410872e+00 -4.193994309546950e-01
2024-10-04T08:58:00.000000000  2.874047483615605e+02  1.261642161349074e+03  6.924191675951930e+03  6.647114008122589e+00  3.402127740564528e+00 -8.935445511066482e-01
2024-10-04T08:59:00.000000000  6.853730031055870e+02  1.463054993146460e+03  6.856440917869480e+03  6.613977197273450e+00  3.309346173495591e+00 -1.364047107005690e+00
2024-10-04T09:00:00.000000000  1.080541851758461e+03  1.658493304648203e+03  6.760617199270569e+03  6.553829127274536e+00  3.203042994049940e+00 -1.828991815013615e+00
2024-10-04T09:01:00.000000000  1.471297229184708e+03  1.847158379977468e+03  6.637110926955387e+03  6.466911745573483e+00  3.083648248519464e+00 -2.286485530234450e+00
2024-10-04T09:02:00.000000000  1.856042932650467e+03  2.028278961471824e+03  6.486425234892789e+03  6.353574064375793e+00  2.951644846690717e+00 -2.734664939694125e+00
2024-10-04T09:03:00.000000000  2.233206848621919e+03  2.201114292979467e+03  6.309173981568724e+03  6.214270544239351e+00  2.807566677162213e+00 -3.171703144731175e+00
2024-10-04T09:04:00.000000000  2.601247261113032e+03  2.364957137061404e+03  6.106079419753956e+03  6.049559595449983e+00  2.651996602608291e+00 -3.595815920509512e+00
2024-10-04T09:05:00.000000000  2.958659081500507e+03  2.519136658868229e+03  5.877969349825387e+03  5.860102349563469e+00  2.485564544657179e+00 -4.005268101774520e+00
2024-10-04T09:06:00.000000000  3.303979825738594e+03  2.663021141083245e+03  5.625774178631409e+03  5.646661436613921e+00  2.308945544125167e+00 -4.398380143520868e+00
2024-10-04T09:07:00.000000000  3.635795821970478e+03  2.796020702937200e+03  5.350523302313661e+03  5.410099060523588e+00  2.122857331032043e+00 -4.773535662766885e+00
2024-10-04T09:08:00.000000000  3.952748068326464e+03  2.917589712848052e+03  5.053340781147131e+03  5.151374194704497e+00  1.928057597882841e+00 -5.129189115206949e+00
2024-10-04T09:09:00.000000000  4.253538101099886e+03  3.027229204688946e+03  4.735440980653066e+03  4.871538832159442e+00  1.725341050008560e+00 -5.463872592448106e+00
2024-10-04T09:10:00.000000000  4.536933006671852e+03  3.124488841341294e+03  4.398124132519468e+03  4.571734583091903e+00  1.515536684867364e+00 -5.776202295323528e+00
2024-10-04T09:11:00.000000000  4.801771092060228e+03  3.208969013643252e+03  4.042770642499259e+03  4.253187604938080e+00  1.299503965329322e+00 -6.064885837236147e+00
2024-10-04T09:12:00.000000000  5.046966647629374e+03  3.280322496344396e+03  3.670835409971702e+03  3.917203052035710e+00  1.078129011788187e+00 -6.328728100895267e+00
2024-10-04T09:13:00.000000000  5.271514251335810e+03  3.338255891066198e+03  3.283842465118683e+03  3.565159957763987e+00  8.523212752111655e-01 -6.566635683906963e+00
2024-10-04T09:14:00.000000000  5.474493667919088e+03  3.382531037638789e+03  2.883377705230741e+03  3.198505097665600e+00  6.230095165890978e-01 -6.777622235677269e+00
2024-10-04T09:15:00.000000000  5.655073042263355e+03  3.412965964303346e+03  2.471083550161443e+03  2.818748325599160e+00  3.911386353998465e-01 -6.960812568026353e+00
2024-10-04T09:16:00.000000000  5.812512895422454e+03  3.429435821481551e+03  2.048651597954152e+03  2.427455963247212e+00  1.576652774812037e-01 -7.115447336833222e+00
2024-10-04T09:17:00.000000000  5.946169394126485e+03  3.431873177193498e+03  1.617814540031866e+03  2.026243234545768e+00 -7.644697487299076e-02 -7.240887455097814e+00
2024-10-04T09:18:00.000000000  6.055496870874954e+03  3.420268717383345e+03  1.180339450649073e+03  1.616767266097229e+00 -3.102316550461350e-01 -7.336616466629845e+00
2024-10-04T09:19:00.000000000  6.140050166154038e+03  3.394671130173811e+03  7.380218600213778e+02  1.200721127361470e+00 -5.427228139034692e-01 -7.402242287512006e+00
2024-10-04T09:20:00.000000000  6.199486504146062e+03  3.355186980777125e+03  2.926771774430660e+02  7.798261007223377e-01 -7.729595843927088e-01 -7.437499919831577e+00
2024-10-04T09:21:00.000000000  6.233567164793187e+03  3.301980060031185e+03 -1.538682111175430e+02  3.558228575042112e-01 -9.999911744925101e-01 -7.442253216483001e+00
2024-10-04T09:22:00.000000000  6.242158194990674e+03  3.235270877194501e+03 -5.997831233879646e+02 -6.953548062270345e-02 -1.222880662733967e+00 -7.416495318079297e+00
2024-10-04T09:23:00.000000000  6.225231006978903e+03  3.155335611786165e+03 -1.043239942705303e+03 -4.944918358427501e-01 -1.440709548845524e+00 -7.360348356779205e+00
2024-10-04T09:24:00.000000000  6.182862359907538e+03  3.062504910592331e+03 -1.482422153793104e+03 -9.172928686096827e-01 -1.652581813114414e+00 -7.274062704408550e+00
2024-10-04T09:25:00.000000000  6.115233953170391e+03  2.957162427865183e+03 -1.915532162072276e+03 -1.336197110939002e+00 -1.857628072049696e+00 -7.158015376464846e+00
2024-10-04T09:26:00.000000000  6.022631365697352e+03  2.839743063958842e+03 -2.340798616658536e+03 -1.749482676004814e+00 -2.055009361162595e+00 -7.012707802864336e+00
2024-10-04T09:27:00.000000000  5.905442366006948e+03  2.710730795051476e+03 -2.756484452109163e+03 -2.155455419839541e+00 -2.243920910816917e+00 -6.838762728867468e+00
2024-10-04T09:28:00.000000000  5.764156007292142e+03  2.570657189650852e+03 -3.160892673957432e+03 -2.552454719036943e+00 -2.423594550169846e+00 -6.636920944726728e+00
2024-10-04T09:29:00.000000000  5.599359645062776e+03  2.420098725018940e+03 -3.552374353727393e+03 -2.938861661685350e+00 -2.593302355401593e+00 -6.408037223186192e+00
2024-10-04T09:30:00.000000000  5.411736014471113e+03  2.259673997016745e+03 -3.929335560603130e+03 -3.313105797816536e+00 -2.752359558652771e+00 -6.153075594315035e+00
2024-10-04T09:31:00.000000000  5.202060632580456e+03  2.090041424458977e+03 -4.290243241355497e+03 -3.673670532541022e+00 -2.900126771541673e+00 -5.873104852775643e+00
2024-10-04T09:32:00.000000000  4.971198303678449e+03  1.911896419208901e+03 -4.633631390090985e+03 -4.019099318165723e+00 -3.036012487046094e+00 -5.569293661026562e+00
2024-10-04T09:33:00.000000000  4.720099217039327e+03  1.725968345141352e+03 -4.958107042353087e+03 -4.348001674092369e+00 -3.159475391550630e+00 -5.242904757786281e+00
2024-10-04T09:34:00.000000000  4.449794926216667e+03  1.533017529805648e+03 -5.262355609730703e+03 -4.659058280114589e+00 -3.270026184978475e+00 -4.895288833302886e+00
2024-10-04T09:35:00.000000000  4.161393973721609e+03  1.333832105077387e+03 -5.545145981933937e+03 -4.951025420332393e+00 -3.367229000739064e+00 -4.527878305069164e+00
2024-10-04T09:36:00.000000000  3.856077310662413e+03  1.129224818484974e+03 -5.805335199632775e+03 -5.222739057096417e+00 -3.450702640361536e+00 -4.142181556200941e+00
2024-10-04T09:37:00.000000000  3.535092483833177e+03  9.200291602434351e+02 -6.041873395856845e+03 -5.473119732584877e+00 -3.520122041619113e+00 -3.739775968614123e+00
2024-10-04T09:38:00.000000000  3.199749837914062e+03  7.070968180363398e+02 -6.253806908528353e+03 -5.701175576943945e+00 -3.575218942396823e+00 -3.322302378933772e+00
